#aV2014  3 18  0  0  0.00000000     288 DD+AD WGS84 FIT  NGA
## 1784 172800.00000000   300.00000000 56734 0.0000000000000
+   31     1  2  3  4  5  7  8  9 10 11 12 13 14 15 16 17 18
+         19 20 21 22 23 24 25 26 27 28 29 30 31 32  0  0  0
+          0  0  0  0  0  0  0  0  0  0  0  0  0  0  0  0  0
+          0  0  0  0  0  0  0  0  0  0  0  0  0  0  0  0  0
+          0  0  0  0  0  0  0  0  0  0  0  0  0  0  0  0  0
++         2  2  2  2  2  2  2  2  2  2  2  2  2  2  2  2  2
++         2  2  2  2  2  2  2  2  2  2  2  2  2  2  0  0  0
++         0  0  0  0  0  0  0  0  0  0  0  0  0  0  0  0  0
++         0  0  0  0  0  0  0  0  0  0  0  0  0  0  0  0  0
++         0  0  0  0  0  0  0  0  0  0  0  0  0  0  0  0  0
%c cc cc ccc ccc cccc cccc cccc cccc ccccc ccccc ccccc ccccc
%c cc cc ccc ccc cccc cccc cccc cccc ccccc ccccc ccccc ccccc
%f  0.0000000  0.000000000  0.00000000000  0.000000000000000
%f  0.0000000  0.000000000  0.00000000000  0.000000000000000
%i    0    0    0    0      0      0      0      0         0
%i    0    0    0    0      0      0      0      0         0
/*      NGA, ST. LOUIS,MO.                                  
/*   EPHEMERIS COMPUTED FROM  1 DAYS OF DATA                
/*   EPOCHA SMOOTHER                                       
/* CCCCCCCCCCCCCCCCCCCCCCCCCCCCCCCCCCCCCCCCCCCCCCCCCCCCCCCCC
*  2014  3 18 15 15  0.00000000
P  1 -13386.776223  19266.433414  12297.356831      4.631181                    
V  1   1260.164791 -15847.323085  26259.596832      0.018055                    
P  2  15091.276768   3760.050258 -21257.741609    484.628601                    
V  2  -5476.704440  27179.301896    411.677716      0.021866                    
P  3 -22629.111352  -4012.783640  12910.440910    339.917370                    
V  3 -12618.749067 -12133.065899 -24692.905733      0.051985                    
P  4   8779.399463  18414.245547 -17190.587219      6.185830                    
V  4  -6807.619064  20406.637210  18957.528465      0.002172                    
P  5  25357.151004  -1812.777181  -8012.258389   -383.697016                    
V  5  -8799.596172   5716.388647 -29124.364708      0.018995                    
P  7  -5671.468734  25732.768927   1332.931981    325.389165                    
V  7  -2992.650564    908.203056 -32203.625256      0.042023                    
P  8     81.946019  23234.124007  12422.907241     12.386104                    
V  8  -7031.755466  14162.906353 -27347.947692      0.002154                    
P  9   2992.394052  23005.707713  12243.815174    313.335560                    
V  9  -5732.603620  15529.154998 -26795.285490      0.028796                    
P 10  13036.941591  11667.799892 -20426.827573   -118.549331                    
V 10 -23911.119367   7852.843304 -10532.705847     -0.013713                    
P 11 -13663.325871  12935.230713  18192.153949   -473.166873                    
V 11  -4575.609596 -24154.065143  13603.235990     -0.033050                    
P 12  22460.243738 -11436.024808  -8062.089601    192.954792                    
V 12  10369.278928   -658.915244  30246.249639      0.023874                    
P 13  -1636.412485  18113.972625 -19437.246067     18.940372                    
V 13 -16822.360584 -17701.142889 -15332.813148     -0.039050                    
P 14 -13400.463706 -21899.242841   7305.008017    189.430071                    
V 14   7694.574172   5071.280032  30063.297096     -0.032745                    
P 15  17918.991753  -3276.142253  19367.306979   -168.901167                    
V 15  17735.274958  17253.769651 -13162.617957     -0.021200                    
P 16 -25472.331191    678.318724  -8165.167012   -227.209026                    
V 16   9534.192041  -3904.603249 -29859.235696      0.016409                    
P 17  15006.901498  21266.561013   6123.890766    -77.390772                    
V 17  -6805.206863  -3673.219618  30495.253297     -0.032330                    
P 18   5046.538928 -17248.710498  19899.689400    307.956073                    
V 18  23889.256855  -5864.960080 -11733.240668      0.021228                    
P 19 -18176.257216   -232.669318  19386.351299   -445.502985                    
V 19 -15656.866117 -19186.012807 -14376.483632     -0.023752                    
P 20 -20501.809212  14551.094876  -8638.064613    171.194452                    
V 20 -11353.914313    434.231246  28372.305917      0.035394                    
P 21   2791.194880 -25930.876387   4030.789406   -350.088302                    
V 21   4882.656580  -3467.275422 -30856.679036     -0.022380                    
P 22  -8777.452601 -13923.619047  21066.554213    220.426098                    
V 22  25065.037728  -8354.468041   4809.908966      0.025232                    
P 23 -12054.982012   9673.916810 -21519.351676     -4.905617                    
V 23 -19918.269964 -19061.429407   2174.723596     -0.032074                    
P 24  14952.499808 -14708.051974  16222.671251    -25.136990                    
V 24  -2507.379550  20623.389470  21077.909642     -0.006795                    
P 25  12142.642173 -16033.678255 -17340.112202     18.955543                    
V 25  21378.775105  -5034.933755  19823.043693      0.013797                    
P 26  20630.643545  10338.928822  12757.455431    135.113189                    
V 26   9909.094843  14111.717782 -25826.253511     -0.110669                    
P 27 -22040.028738 -10121.888554  10880.125923    -20.418124                    
V 27  -8499.680087 -11126.865937 -27519.736967     -0.001577                    
P 28   4343.184783  14311.076413  22559.396301    340.509027                    
V 28 -26366.486431   6271.498123    995.534789      0.027862                    
P 29   2861.608331 -17003.296257 -20171.661966    518.980302                    
V 29  18548.332875  17781.225549 -12284.239061      0.028236                    
P 30   -283.598313  24519.665293  10180.167847      3.792633                    
V 30  -6331.698997  11570.569337 -28045.959292     -0.005781                    
P 31  -9765.855692 -14681.429802 -19605.916173    333.883979                    
V 31   7589.062116 -24147.825887  14494.023620      0.001477                    
P 32 -25856.806917   4266.406550   1731.471075   -466.820787                    
V 32   1342.998918  -4052.948165  31729.338922      0.072358                    
EOF
